TYVAK-182A              
1 48271U 21034D   26131.12174277  .00003744  00000+0  26229-3 0  9997
2 48271  97.5738 190.6881 0007256  98.1950 262.0100 15.05804986274255
CSS (TIANHE)            
1 48274U 21035A   26131.49630319  .00032325  00000+0  36027-3 0  9999
2 48274  41.4667 185.1700 0004284 287.6488  72.3883 15.62123975287434
TYVAK-0130              
1 48606U 21041BF  26131.46526113  .00004389  00000+0  17592-3 0  9993
2 48606  52.9932 196.5549 0011093  58.3575 301.8503 15.27053901274772
HAIYANG-2D              
1 48621U 21043A   26131.92821039 -.00000043  00000+0  34994-4 0  9998
2 48621  66.0001  34.9724 0011410 273.4678  86.5085 13.83372536251538
TYVAK-0173              
1 48892U 21059P   26131.86799524  .00001099  00000+0  14323-3 0  9995
2 48892  96.0084 217.2545 0010278 143.8868 216.3046 14.81764396262867
MANDRAKE 2 ABLE         
1 48907U 21059AE  26131.92612802  .00015141  00000+0  23966-3 0  9998
2 48907  97.7051 318.9883 0006257 120.3399 239.8473 15.53524264271492
MANDRAKE 2 BAKER        
1 48908U 21059AF  26131.76676706  .00017981  00000+0  24379-3 0  9997
2 48908  97.7027 321.4458 0004850 118.5554 241.6189 15.57720594271620
PACE-1                  
1 48909U 21059AG  26131.79129865  .00050826  00000+0  35232-3 0  9995
2 48909  97.6812 325.9963 0002869 102.9439 257.2145 15.74333665272061
YAM-3                   
1 48915U 21059AN  26131.28899010  .00007724  00000+0  15102-3 0  9995
2 48915  97.7001 315.8592 0006482 122.9727 237.2146 15.47734229271285
FARADAY_PHOENIX         
1 48924U 21059AX  26131.78859879  .00068061  00000+0  55322-3 0  9998
2 48924  97.6866 326.0188 0005190 114.4485 245.7318 15.70478975271936
DEMO8 (TENZING)         
1 48951U 21059CA  26131.09292465  .00013721  00000+0  21678-3 0  9994
2 48951  97.7050 321.7291 0008276 118.3663 241.8425 15.53584421271546
NAPA-2                  
1 48963U 21059CN  26131.59367564  .00109656  00000+0  47308-3 0  9996
2 48963  97.6795 325.9835 0002276 128.4227 231.7247 15.84669656271993
FENGYUN 3E              
1 49008U 21062A   26131.91117764  .00000089  00000+0  62441-4 0  9998
2 49008  98.7506 135.7236 0001679 151.3572 208.7697 14.19901432251430
ISS (NAUKA)             
1 49044U 21066A   26131.94084644  .00005053  00000+0  99156-4 0  9994
2 49044  51.6311 119.5258 0007482  49.0995 311.0641 15.49189846565162
STARLINK-3100           
1 49144U 21082Q   26131.72284711 -.00003623  00000+0 -29583-3 0  9995
2 49144  69.9995 135.5174 0003838 268.9091  91.1628 14.98348733255429
CUTE                    
1 49263U 21088D   26131.63867088  .00137929  00000+0  79803-3 0  9992
2 49263  97.4194 227.8473 0001463 279.7410  80.3691 15.78203787256768
2021-091B               
1 49316U 21091B   26131.94762713  .00001394  00000+0  71031-4 0  9990
2 49316  97.4486 320.0793 0013703 160.2028 199.9741 15.18363547253485
SDGSAT 1                
1 49387U 21100A   26131.95352557  .00001182  00000+0  58312-4 0  9993
2 49387  97.2666 180.2446 0009716  65.3568 294.8678 15.19736073250418
TEIKYOSAT-4 (OORURI)    
1 49396U 21102B   26131.52760134  .00000954  00000+0  63442-4 0  9998
2 49396  97.3700 162.4348 0013571  63.4172 296.8447 15.09374329247193
Z-SAT                   
1 49399U 21102E   26131.94575595  .00002915  00000+0  14620-3 0  9994
2 49399  97.3362 168.3710 0017203  20.1236 340.0673 15.17985614247945
HIBARI                  
1 49400U 21102F   26131.87029267  .00006764  00000+0  22812-3 0  9997
2 49400  97.3273 178.2031 0010485 337.7110  22.3674 15.30989547248630
KOSEN-1                 
1 49402U 21102H   26131.36867523  .00004362  00000+0  17044-3 0  9991
2 49402  97.3221 174.2499 0012959 345.0887  14.9967 15.26323342248407
GLOBAL-14               
1 49469U 21106A   26131.41424488  .00014110  00000+0  25967-3 0  9998
2 49469  42.0035 149.3104 0014053 131.8674 228.3371 15.48856853252427
GAOFEN-3 02             
1 49495U 21109A   26131.97232431 -.00000173  00000+0 -39456-4 0  9991
2 49495  98.4106 140.5826 0003979  94.2782 265.8862 14.42211644235092
GLOBAL-12               
1 49772U 21115BA  26131.50779588  .00020448  00000+0  34542-3 0  9999
2 49772  53.1955 220.6122 0002059 320.6697  39.4164 15.51621862250206
GLOBAL-13               
1 49773U 21115BB  26131.64333223  .00011075  00000+0  24176-3 0  9995
2 49773  53.1973 228.1195 0003138  23.9861 336.1292 15.44753310250110
GLOBAL-17               
1 49949U 21120A   26131.64869098  .00018566  00000+0  32133-3 0  9994
2 49949  41.9955 266.6993 0013268 351.5025   8.5593 15.50445261249224
GLOBAL-16               
1 49950U 21120B   26131.74424293  .00016546  00000+0  30710-3 0  9996
2 49950  41.9961 269.2147 0011488 341.9728  18.0706 15.48546391249199
XW-3 (CAS-9)            
1 50466U 21131B   26131.95615499  .00000182  00000+0  70061-4 0  9998
2 50466  98.4952 224.5456 0003755 189.9047 170.2069 14.41321426229899
