OBJECT_NAME,OBJECT_ID,EPOCH,MEAN_MOTION,ECCENTRICITY,INCLINATION,RA_OF_ASC_NODE,ARG_OF_PERICENTER,MEAN_ANOMALY,EPHEMERIS_TYPE,CLASSIFICATION_TYPE,NORAD_CAT_ID,ELEMENT_SET_NO,REV_AT_EPOCH,BSTAR,MEAN_MOTION_DOT,MEAN_MOTION_DDOT
TYVAK-182A,2021-034D,2026-05-11T02:55:18.575328,15.05804986,.00072568,97.5738,190.6881,98.1950,262.0100,0,U,48271,999,27425,.26228895E-3,.3744E-4,0
CSS (TIANHE),2021-035A,2026-05-11T11:54:40.595616,15.62123975,.0004284,41.4667,185.1700,287.6488,72.3883,0,U,48274,999,28743,.36027E-3,.32325E-3,0
TYVAK-0130,2021-041BF,2026-05-11T11:09:58.561632,15.27053901,.00110939,52.9932,196.5549,58.3575,301.8503,0,U,48606,999,27477,.1759241E-3,.4389E-4,0
HAIYANG-2D,2021-043A,2026-05-11T22:16:37.377696,13.83372536,.00114106,66.0001,34.9724,273.4678,86.5085,0,U,48621,999,25153,.34994451E-4,-.43E-6,0
TYVAK-0173,2021-059P,2026-05-11T20:49:54.788736,14.81764396,.00102784,96.0084,217.2545,143.8868,216.3046,0,U,48892,999,26286,.14323081E-3,.1099E-4,0
MANDRAKE 2 ABLE,2021-059AE,2026-05-11T22:13:37.460928,15.53524264,.00062578,97.7051,318.9883,120.3399,239.8473,0,U,48907,999,27149,.23965662E-3,.15141E-3,0
MANDRAKE 2 BAKER,2021-059AF,2026-05-11T18:24:08.673984,15.57720594,.000485,97.7027,321.4458,118.5554,241.6189,0,U,48908,999,27162,.24378973E-3,.17981E-3,0
PACE-1,2021-059AG,2026-05-11T18:59:28.203360,15.74333665,.00028698,97.6812,325.9963,102.9439,257.2145,0,U,48909,999,27206,.35231648E-3,.50826E-3,0
YAM-3,2021-059AN,2026-05-11T06:56:08.744640,15.47734229,.00064823,97.7001,315.8592,122.9727,237.2146,0,U,48915,999,27128,.15102042E-3,.7724E-4,0
FARADAY_PHOENIX,2021-059AX,2026-05-11T18:55:34.935456,15.70478975,.00051904,97.6866,326.0188,114.4485,245.7318,0,U,48924,999,27193,.55322153E-3,.68061E-3,0
DEMO8 (TENZING),2021-059CA,2026-05-11T02:13:48.689760,15.53584421,.00082763,97.7050,321.7291,118.3663,241.8425,0,U,48951,999,27154,.21677528E-3,.13721E-3,0
NAPA-2,2021-059CN,2026-05-11T14:14:53.575296,15.84669656,.00022765,97.6795,325.9835,128.4227,231.7247,0,U,48963,999,27199,.47308013E-3,.109656E-2,0
FENGYUN 3E,2021-062A,2026-05-11T21:52:05.748096,14.19901432,.00016797,98.7506,135.7236,151.3572,208.7697,0,U,49008,999,25143,.62440913E-4,.89E-6,0
ISS (NAUKA),2021-066A,2026-05-11T22:34:49.132416,15.49189846,.00074824,51.6311,119.5258,49.0995,311.0641,0,U,49044,999,56516,.99156157E-4,.5053E-4,0
STARLINK-3100,2021-082Q,2026-05-11T17:20:53.990304,14.98348733,.00038387,69.9995,135.5174,268.9091,91.1628,0,U,49144,999,25542,-.29582872E-3,-.3623E-4,0
CUTE,2021-088D,2026-05-11T15:19:41.164032,15.78203787,.00014636,97.4194,227.8473,279.7410,80.3691,0,U,49263,999,25676,.79802852E-3,.137929E-2,0
2021-091B,2021-091B,2026-05-11T22:44:34.984032,15.18363547,.00137033,97.4486,320.0793,160.2028,199.9741,0,U,49316,999,25348,.71031089E-4,.1394E-4,0
SDGSAT 1,2021-100A,2026-05-11T22:53:04.609248,15.19736073,.00097166,97.2666,180.2446,65.3568,294.8678,0,U,49387,999,25041,.58311918E-4,.1182E-4,0
TEIKYOSAT-4 (OORURI),2021-102B,2026-05-11T12:39:44.755776,15.09374329,.00135713,97.3700,162.4348,63.4172,296.8447,0,U,49396,999,24719,.63441827E-4,.954E-5,0
Z-SAT,2021-102E,2026-05-11T22:41:53.314080,15.17985614,.00172036,97.3362,168.3710,20.1236,340.0673,0,U,49399,999,24794,.1462023E-3,.2915E-4,0
HIBARI,2021-102F,2026-05-11T20:53:13.286688,15.30989547,.00104855,97.3273,178.2031,337.7110,22.3674,0,U,49400,999,24863,.22812006E-3,.6764E-4,0
KOSEN-1,2021-102H,2026-05-11T08:50:53.539872,15.26323342,.00129594,97.3221,174.2499,345.0887,14.9967,0,U,49402,999,24840,.17043985E-3,.4362E-4,0
GLOBAL-14,2021-106A,2026-05-11T09:56:30.757632,15.48856853,.00140536,42.0035,149.3104,131.8674,228.3371,0,U,49469,999,25242,.25967234E-3,.1411E-3,0
GAOFEN-3 02,2021-109A,2026-05-11T23:20:08.820384,14.42211644,.00039799,98.4106,140.5826,94.2782,265.8862,0,U,49495,999,23509,-.394559E-4,-.173E-5,0
GLOBAL-12,2021-115BA,2026-05-11T12:11:13.564032,15.51621862,.00020593,53.1955,220.6122,320.6697,39.4164,0,U,49772,999,25020,.34541854E-3,.20448E-3,0
GLOBAL-13,2021-115BB,2026-05-11T15:26:23.904672,15.44753310,.00031387,53.1973,228.1195,23.9861,336.1292,0,U,49773,999,25011,.24176035E-3,.11075E-3,0
GLOBAL-17,2021-120A,2026-05-11T15:34:06.900672,15.50445261,.00132683,41.9955,266.6993,351.5025,8.5593,0,U,49949,999,24922,.32132633E-3,.18566E-3,0
GLOBAL-16,2021-120B,2026-05-11T17:51:42.589152,15.48546391,.00114886,41.9961,269.2147,341.9728,18.0706,0,U,49950,999,24919,.30710205E-3,.16546E-3,0
XW-3 (CAS-9),2021-131B,2026-05-11T22:56:51.791136,14.41321426,.00037551,98.4952,224.5456,189.9047,170.2069,0,U,50466,999,22989,.70061077E-4,.182E-5,0
